SBIRS GEO-1 (USA 230)   
1 37481U 11019A   21230.15663885 -.00000022  00000-0  00000+0 0  9999
2 37481   1.8046   5.9056 0002182 142.8419 300.5742  1.00272257 37659
TELSTAR 14R             
1 37602U 11021A   21230.13090427 -.00000294  00000-0  00000+0 0  9992
2 37602   0.0242  74.3067 0001712  25.0561 211.4644  1.00270548 38094
GSAT-8                  
1 37605U 11022A   21230.08266282  .00000071  00000-0  00000+0 0  9996
2 37605   0.0453 285.1596 0002623 329.6752 156.6404  1.00271626 37559
ST-2                    
1 37606U 11022B   21229.95626779 -.00000225  00000-0  00000-0 0  9995
2 37606   0.0141 118.3328 0001704  56.8294 223.6317  1.00272235 37581
CHINASAT 10 (ZX 10)     
1 37677U 11026A   21229.84077306 -.00000366  00000-0  00000-0 0  9997
2 37677   0.0799 261.2270 0004672 265.7756 212.6168  1.00272645 37300
SJ-11-03                
1 37730U 11030A   21230.04248362  .00000008  00000-0  10451-4 0  9995
2 37730  97.8350 255.8557 0008077 198.6164 161.4750 14.60885149539364
TIANLIAN 1-02           
1 37737U 11032A   21230.26979104 -.00000031  00000-0  00000+0 0  9994
2 37737   2.4522  74.6082 0019489  95.0396  65.3464  1.00274119 37030
GLOBALSTAR M083         
1 37739U 11033A   21229.85683951 -.00000101  00000-0  18028-4 0  9994
2 37739  51.9882 345.5941 0000778  82.6673  68.5233 12.62264112470497
GLOBALSTAR M088         
1 37740U 11033B   21229.83467648 -.00000078  00000-0  14169-3 0  9991
2 37740  51.9711 252.3316 0000542  84.0211  86.0838 12.62265173465672
GLOBALSTAR M091         
1 37741U 11033C   21230.20940130 -.00000092  00000-0  66374-4 0  9999
2 37741  51.9977 212.2389 0000380  54.6693 318.1546 12.62267838466776
GLOBALSTAR M085         
1 37742U 11033D   21229.89150671 -.00000108  00000-0 -21387-4 0  9990
2 37742  51.9859 165.4828 0000461  44.7657  23.7302 12.62266580466988
GLOBALSTAR M081         
1 37743U 11033E   21229.91242094 -.00000111  00000-0 -43023-4 0  9990
2 37743  51.9951 167.3428 0000629  64.1629 339.3013 12.62265171467138
GLOBALSTAR M089         
1 37744U 11033F   21229.88061331 -.00000105  00000-0 -92025-5 0  9990
2 37744  51.9930 121.9319 0000384  82.5401 356.3737 12.62266638468223
GSAT-12                 
1 37746U 11034A   21229.86588164  .00000111  00000-0  00000-0 0  9991
2 37746   0.6169  96.2644 0010841   5.6569 224.1921  1.00269709 25807
SES-3                   
1 37748U 11035A   21229.62048703 -.00000114  00000-0  00000-0 0  9992
2 37748   0.0539 293.9215 0003008 204.0097 308.6389  1.00271251 36917
KAZSAT-2                
1 37749U 11035B   21229.87364564 -.00000211  00000-0  00000-0 0  9994
2 37749   0.0137 160.8567 0001331   2.5952 203.9987  1.00273495 35699
NAVSTAR 66 (USA 232)    
1 37753U 11036A   21230.11511457 -.00000051  00000-0  00000+0 0  9995
2 37753  56.4524  40.5361 0108996  49.8253 129.9844  2.00563509 73889
BEIDOU 9                
1 37763U 11038A   21230.26204252 -.00000071  00000-0  00000+0 0  9998
2 37763  54.4694 181.4708 0084474 226.9124 104.7266  1.00253267 36957
SJ-11-02                
1 37765U 11039A   21230.05882864  .00000006  00000-0  11294-4 0  9998
2 37765  98.4801  67.8771 0011531   8.0910 352.0477 14.61663236536140
ASTRA 1N                
1 37775U 11041A   21229.86021131  .00000106  00000-0  00000-0 0  9991
2 37775   0.0463 350.9927 0003821 103.6001 200.6988  1.00270598 26838
BSAT-3C (JCSAT-110R)    
1 37776U 11041B   21230.02238633 -.00000364  00000-0  00000+0 0  9995
2 37776   0.0263 318.6727 0000078 233.0482 252.8860  1.00272512 36835
PAKSAT-1R               
1 37779U 11042A   21230.07926062  .00000140  00000-0  00000+0 0  9995
2 37779   0.0574 281.3707 0003982 155.9532 315.8456  1.00272432 36597
HAIYANG-2A              
1 37781U 11043A   21230.02646825 -.00000014  00000-0  29594-4 0  9995
2 37781  99.3163 236.1824 0000435  43.3929 316.7257 13.78721843503820
NIGERIASAT-2            
1 37789U 11044B   21230.04418772 -.00000019  00000-0  50560-5 0  9997
2 37789  97.8408 263.6737 0009383 278.8164  81.1978 14.62172873533540
NIGERIASAT-X            
1 37790U 11044C   21230.13360680  .00000005  00000-0  10438-4 0  9996
2 37790  97.9405 281.6839 0013467 119.5323 240.7227 14.58638809533056
RASAT                   
1 37791U 11044D   21230.10016637  .00000035  00000-0  15529-4 0  9993
2 37791  98.1048 322.7488 0022170   9.6676 350.4947 14.64846606534705
APRIZESAT 5             
1 37792U 11044E   21230.05505610  .00000040  00000-0  14216-4 0  9990
2 37792  98.3691  90.7905 0056784 249.9908 109.5180 14.75508959538392
APRIZESAT 6             
1 37793U 11044F   21229.79949343  .00000057  00000-0  17806-4 0  9991
2 37793  98.4275  66.1065 0045683 296.4634 129.2290 14.72560384537178
CHINASAT 1A (ZX 1A)     
1 37804U 11047A   21229.89525977 -.00000351  00000-0  00000-0 0  9993
2 37804   0.0564 280.3084 0000628 347.0250 151.3079  1.00269528  9661
SES-2                   
1 37809U 11049A   21229.91080814 -.00000209  00000-0  00000-0 0  9991
2 37809   0.0538 282.4109 0003111 220.4734  64.4915  1.00271211 36271
ARABSAT-5C              
1 37810U 11049B   21229.86038578  .00000110  00000-0  00000-0 0  9997
2 37810   0.0565  10.4277 0006439 154.6139 131.1181  1.00271971 36361
EUTELSAT 7 WEST A       
1 37816U 11051A   21230.14198322 -.00000075  00000-0  00000+0 0  9993
2 37816   0.0645  26.6543 0004918 129.7307 214.1440  1.00270758 36284
TACSAT 4                
1 37818U 11052A   21229.84983024 -.00000510  00000-0 -52609-3 0  9993
2 37818  63.0301 221.2413 4641748 232.6112  73.9977  6.02752147217611
QUETZSAT 1              
1 37826U 11054A   21230.05631758 -.00000255  00000-0  00000+0 0  9992
2 37826   0.0259 327.0097 0003019 177.8938 124.9971  1.00270947 36404
INTELSAT 18 (IS-18)     
1 37834U 11056A   21230.19215997  .00000039  00000-0  00000+0 0  9990
2 37834   0.0200  60.7489 0002147  80.3638  74.8394  1.00273539 36155
EUTELSAT 16A            
1 37836U 11057A   21230.14660674  .00000089  00000-0  00000+0 0  9999
2 37836   0.0668  10.7850 0004711 141.1678 243.5331  1.00271268 36109
MEGHA-TROPIQUES         
1 37838U 11058A   21229.62883467  .00000772  00000-0  28605-3 0  9994
2 37838  19.9785 320.5140 0009474 193.1832 166.8325 14.09607197440852
JUGNU                   
1 37839U 11058B   21230.16392490  .00000316  00000-0  26922-4 0  9992
2 37839  19.9598 214.9388 0019081  53.3346 234.2644 14.12721401509306
SRMSAT                  
1 37841U 11058D   21230.24117552  .00000310  00000-0  25039-4 0  9990
2 37841  19.9720 287.6330 0011652 252.7998 153.0453 14.10700986508593
VIASAT-1                
1 37843U 11059A   21230.24690005 -.00000038  00000-0  00000+0 0  9996
2 37843   0.0104 170.4197 0002973 335.8352 154.3264  1.00270422 36586
GSAT0101 (GALILEO-PFM)  
1 37846U 11060A   21228.81310939 -.00000064  00000-0  00000+0 0  9995
2 37846  56.8701  29.6339 0002379  57.4659 302.5754  1.70475072 61158
GSAT0102 (GALILEO-FM2)  
1 37847U 11060B   21229.45399979 -.00000066  00000-0  00000-0 0  9991
2 37847  56.8711  29.6159 0001713 357.1496  82.5556  1.70475301 61048
SUOMI NPP               
1 37849U 11061A   21230.20152603 -.00000008  00000-0  16868-4 0  9999
2 37849  98.7386 168.0570 0001494  94.9960  39.9712 14.19539890508166
M-CUBED & EXP-1 PRIME   
1 37855U 11061F   21229.73469427  .00000965  00000-0  53755-4 0  9994
2 37855 101.7139 184.9346 0165587 248.3306 110.0203 15.08012791535414
COSMOS 2476 [GLONASS-M] 
1 37867U 11064A   21230.10240479 -.00000029  00000-0  00000+0 0  9999
2 37867  64.5789 132.7049 0020714 237.7211 183.2718  2.13101942 76225
COSMOS 2477 [GLONASS-M] 
1 37868U 11064B   21229.45475473 -.00000027  00000-0  00000-0 0  9999
2 37868  64.5869 132.7881 0018227 239.2726 223.1632  2.13101885 76161
COSMOS 2475 [GLONASS-M] 
1 37869U 11064C   21229.51930955 -.00000028  00000-0  00000-0 0  9999
2 37869  64.5952 132.7904 0022274 258.4928 211.2256  2.13102221 76171
YAOGAN 12               
1 37875U 11066B   21230.22959215  .00000886  00000-0  39973-4 0  9994
2 37875  97.3499 304.0389 0010839  74.8110   9.9902 15.23520339543983
CHUANGXIN 1-03 (CX-1-03)
1 37930U 11068A   21230.10054188 -.00000018  00000-0  10166-4 0  9991
2 37930  98.6681 221.1367 0013865 243.5169 116.4594 14.29811560510897
SHIYAN 4 (SY-4)         
1 37931U 11068B   21230.11819602  .00000001  00000-0  17729-4 0  9996
2 37931  98.6728 221.4566 0022170 277.4031  82.4632 14.29874829508571
ASIASAT 7               
1 37933U 11069A   21228.45267513 -.00000342  00000-0  00000+0 0  9999
2 37933   0.0370 273.8380 0002455 195.6943 123.9789  1.00271432 35750
YAOGAN 13               
1 37941U 11072A   21230.22572046  .00000759  00000-0  39546-4 0  9993
2 37941  97.5921 172.6569 0002909  48.1172  88.0605 15.19059605538743
BEIDOU 10               
1 37948U 11073A   21229.78042718 -.00000144  00000-0  00000-0 0  9996
2 37948  50.8572 292.8944 0078147 216.1486 194.4909  1.00279786 35715
LUCH 5A                 
1 37951U 11074B   21230.26667014 -.00000064  00000-0  00000+0 0  9998
2 37951   4.2633 103.9801 0005173  10.2047 115.6064  1.00273233 35504
SSOT                    
1 38011U 11076E   21230.16302741  .00000102  00000-0  19396-4 0  9995
2 38011  97.8281 304.8254 0001489  91.0322 269.1070 14.82004111523114
PLEIADES 1A             
1 38012U 11076F   21230.16160666 -.00000014  00000-0  68215-5 0  9992
2 38012  98.1976 304.6030 0001133  97.2902 262.8434 14.58555572514869
NIGCOMSAT 1R            
1 38014U 11077A   21229.90674288  .00000131  00000-0  00000-0 0  9997
2 38014   0.0281 112.5187 0002409 353.6281 229.2434  1.00271413 35268
ZIYUAN 1-02C (ZY 1-02C) 
1 38038U 11079A   21230.11831458 -.00000017  00000-0  97036-5 0  9998
2 38038  98.6330 290.4206 0008258  86.6319 273.5829 14.35275110505973
GLOBALSTAR M084         
1 38040U 11080A   21229.83496861 -.00000106  00000-0 -13128-4 0  9994
2 38040  52.0034 348.6247 0000816 115.8386  53.8317 12.62264970445944
